NORAD_CAT_ID,OBJECT_NAME,OBJECT_TYPE,EPOCH,MEAN_MOTION,ECCENTRICITY,INCLINATION,RA_OF_ASC_NODE,ARG_OF_PERICENTER,MEAN_ANOMALY,BSTAR,MEAN_MOTION_DOT,MEAN_MOTION_DDOT,TLE_LINE0,TLE_LINE1,TLE_LINE2,SEMIMAJOR_AXIS,PERIOD,APOGEE,PERIGEE,DECAYED
52100.0,STARLINK-3702,PAYLOAD,2022-10-24 12:44:07,15.08849214,0.000172,53.2186,220.5066,59.4459,300.6703,9.3434e-05,1.2e-05,0.0,0 STARLINK-3702,1 52100U 22029N   22297.53064443  .00001200  00000-0  93434-4 0  9994,2 52100  53.2186 220.5066 0001720  59.4459 300.6703 15.08849214 34640,6917.852,95.437,540.9069999999998,538.5269999999998,0.0
52100.0,STARLINK-3702,PAYLOAD,2022-10-25 04:38:01,15.08821293,0.0001631999999999,53.2191,217.5299,73.1764,286.9407,-0.00013024,-2.359e-05,0.0,0 STARLINK-3702,1 52100U 22029N   22298.19307807 -.00002359  00000-0 -13024-3 0  9995,2 52100  53.2191 217.5299 0001632  73.1764 286.9407 15.08821293 34749,6917.938,95.439,540.932,538.674,0.0
52100.0,STARLINK-3702,PAYLOAD,2022-10-26 04:28:49,15.08823134,0.0001602,53.219,213.0707,64.3653,295.7504,-3.121e-05,-7.84e-06,0.0,0 STARLINK-3702,1 52100U 22029N   22299.18667832 -.00000784  00000-0 -31210-4 0  9990,2 52100  53.2190 213.0707 0001602  64.3653 295.7504 15.08823134 34897,6917.932,95.439,540.905,538.689,0.0
52100.0,STARLINK-3702,PAYLOAD,2022-10-26 10:50:21,15.08827848,0.0001571999999999,53.2187,211.8818,62.985,297.1302,-4.3948e-06,-3.58e-06,0.0,0 STARLINK-3702,1 52100U 22029N   22299.45163725 -.00000358  00000-0 -43948-5 0  9991,2 52100  53.2187 211.8818 0001572  62.9850 297.1302 15.08827848 34934,6917.918000000002,95.438,540.87,538.695,0.0
52100.0,STARLINK-3702,PAYLOAD,2022-10-27 04:19:36,15.08818702,0.0001455,53.2189,208.6105,64.3306,295.7836,0.0004444,6.788e-05,0.0,0 STARLINK-3702,1 52100U 22029N   22300.18027941  .00006788  00000-0  44440-3 0  9990,2 52100  53.2189 208.6105 0001455  64.3306 295.7836 15.08818702 35049,6917.945,95.439,540.817,538.804,0.0
52100.0,STARLINK-3702,PAYLOAD,2022-10-27 10:41:07,15.088464800000002,0.0001528,53.2189,207.4214,62.8033,297.3114,0.00021909,3.201e-05,0.0,0 STARLINK-3702,1 52100U 22029N   22300.44522888  .00003201  00000-0  21909-3 0  9991,2 52100  53.2189 207.4214 0001528  62.8033 297.3114 15.08846480 35083,6917.861,95.437,540.783,538.669,0.0
52100.0,STARLINK-3702,PAYLOAD,2022-10-28 00:59:36,15.08845894,0.000143,53.2188,204.7457,67.9512,292.1632,0.00021863,3.194e-05,0.0,0 STARLINK-3702,1 52100U 22029N   22301.04138943  .00003194  00000-0  21863-3 0  9993,2 52100  53.2188 204.7457 0001430  67.9512 292.1632 15.08845894 35177,6917.861999999999,95.437,540.717,538.738,0.0
52100.0,STARLINK-3702,PAYLOAD,2022-10-28 21:39:36,15.08849286,0.0001483,53.2191,200.8809,71.445,288.6703,0.00011001,1.464e-05,0.0,0 STARLINK-3702,1 52100U 22029N   22301.90250784  .00001464  00000-0  11001-3 0  9997,2 52100  53.2191 200.8809 0001483  71.4450 288.6703 15.08849286 35301,6917.852,95.437,540.743,538.691,0.0
52100.0,STARLINK-3702,PAYLOAD,2022-10-29 02:25:45,15.08857005,0.0001409999999999,53.2188,199.9888,73.8124,286.3024,6.545e-05,7.54e-06,0.0,0 STARLINK-3702,1 52100U 22029N   22302.10122213  .00000754  00000-0  65450-4 0  9994,2 52100  53.2188 199.9888 0001410  73.8124 286.3024 15.08857005 35338,6917.828,95.436,540.669,538.7180000000002,0.0
52100.0,STARLINK-3702,PAYLOAD,2022-10-30 10:13:27,15.08856377,0.0001578,53.2189,194.0419,63.1685,296.9468,8.5458e-05,1.073e-05,0.0,0 STARLINK-3702,1 52100U 22029N   22303.42601155  .00001073  00000-0  85458-4 0  9992,2 52100  53.2189 194.0419 0001578  63.1685 296.9468 15.08856377 35536,6917.83,95.437,540.7869999999998,538.604,0.0
52100.0,STARLINK-3702,PAYLOAD,2022-10-30 21:21:10,15.08837744,0.0001392,53.2202,191.9572,76.3606,283.7541,-5.1552e-05,-1.108e-05,0.0,0 STARLINK-3702,1 52100U 22029N   22303.88970431 -.00001108  00000-0 -51552-4 0  9997,2 52100  53.2202 191.9572 0001392  76.3606 283.7541 15.08837744 35602,6917.887,95.438,540.715,538.789,0.0
52100.0,STARLINK-3702,PAYLOAD,2022-10-31 10:04:18,15.0881112,0.0001657,53.2192,189.58,71.4759,288.6414,-0.00024586,-4.196e-05,0.0,0 STARLINK-3702,1 52100U 22029N   22304.41965361 -.00004196  00000-0 -24586-3 0  9999,2 52100  53.2192 189.5800 0001657  71.4759 288.6414 15.08811120 35687,6917.969,95.439,540.98,538.687,0.0
52100.0,STARLINK-3702,PAYLOAD,2022-11-01 01:58:07,15.08840029,0.0001623,53.2192,186.6058,67.9882,292.1282,4.4843e-06,-2.17e-06,0.0,0 STARLINK-3702,1 52100U 22029N   22305.08203206 -.00000217  00000-0  44843-5 0  9995,2 52100  53.2192 186.6058 0001623  67.9882 292.1282 15.08840029 35784,6917.88,95.438,540.868,538.623,0.0
52100.0,STARLINK-3702,PAYLOAD,2022-11-01 11:30:25,15.08845808,0.0001301,53.2179,184.821,70.7736,289.3396,5.0421e-05,5.15e-06,0.0,0 STARLINK-3702,1 52100U 22029N   22305.47946630  .00000515  00000-0  50421-4 0  9991,2 52100  53.2179 184.8210 0001301  70.7736 289.3396 15.08845808 35843,6917.863,95.437,540.628,538.828,0.0
52100.0,STARLINK-3702,PAYLOAD,2022-11-01 17:51:58,15.08835715,0.0001187,53.2179,183.6309,75.7941,284.3183,0.00013824,1.913e-05,0.0,0 STARLINK-3702,1 52100U 22029N   22305.74443046  .00001913  00000-0  13824-3 0  9992,2 52100  53.2179 183.6309 0001187  75.7941 284.3183 15.08835715 35883,6917.893,95.438,540.58,538.937,0.0
52100.0,STARLINK-3702,PAYLOAD,2022-11-02 01:48:55,15.08829497,0.0001286999999999,53.2195,182.148,52.183,307.9279,0.00014954,2.092e-05,0.0,0 STARLINK-3702,1 52100U 22029N   22306.07563724  .00002092  00000-0  14954-3 0  9999,2 52100  53.2195 182.1480 0001287  52.1830 307.9279 15.08829497 35936,6917.9119999999975,95.438,540.668,538.887,0.0
52100.0,STARLINK-3702,PAYLOAD,2022-11-02 19:18:10,15.08843153,0.000204,53.218,178.8777,55.1377,304.9807,-6.7439e-05,-1.361e-05,0.0,0 STARLINK-3702,1 52100U 22029N   22306.80428334 -.00001361  00000-0 -67439-4 0  9994,2 52100  53.2180 178.8777 0002040  55.1377 304.9807 15.08843153 36040,6917.871,95.437,541.1469999999998,538.325,0.0
52100.0,STARLINK-3702,PAYLOAD,2022-11-03 11:12:00,15.08849799,0.0001564999999999,53.218,175.9038,46.1336,313.9785,0.00011451,1.535e-05,0.0,0 STARLINK-3702,1 52100U 22029N   22307.46667293  .00001535  00000-0  11451-3 0  9999,2 52100  53.2180 175.9038 0001565  46.1336 313.9785 15.08849799 36142,6917.85,95.437,540.798,538.633,0.0
52100.0,STARLINK-3702,PAYLOAD,2022-11-03 17:33:32,15.088481699999996,8.740000000000001e-05,53.2193,174.7129,54.4302,305.6772,7.579e-05,9.19e-06,0.0,0 STARLINK-3702,1 52100U 22029N   22307.73163185  .00000919  00000-0  75790-4 0  9992,2 52100  53.2193 174.7129 0000874  54.4302 305.6772 15.08848170 36181,6917.855,95.437,540.325,539.116,0.0
52100.0,STARLINK-3702,PAYLOAD,2022-11-04 14:13:33,15.08853816,0.0002886,53.2166,170.8539,35.9708,324.1478,0.00020661,3.003e-05,0.0,0 STARLINK-3702,1 52100U 22029N   22308.59274779  .00003003  00000-0  20661-3 0  9992,2 52100  53.2166 170.8539 0002886  35.9708 324.1478 15.08853816 36319,6917.8380000000025,95.437,541.7,537.707,0.0
52100.0,STARLINK-3702,PAYLOAD,2022-11-04 17:24:20,15.08841799,0.000157,53.2181,170.2537,54.9129,305.201,1.5769e-05,-3.7e-07,0.0,0 STARLINK-3702,1 52100U 22029N   22308.72523578 -.00000037  00000-0  15769-4 0  9990,2 52100  53.2181 170.2537 0001570  54.9129 305.2010 15.08841799 36336,6917.875,95.437,540.826,538.654,0.0
52100.0,STARLINK-3702,PAYLOAD,2022-11-05 10:53:35,15.0883525,0.000169,53.217,166.9817,61.9891,298.1272,-0.0001185,-2.173e-05,0.0,0 STARLINK-3702,1 52100U 22029N   22309.45388231 -.00002173  00000-0 -11850-3 0  9996,2 52100  53.2170 166.9817 0001690  61.9891 298.1272 15.08835250 36441,6917.895,95.438,540.929,538.591,0.0
52100.0,STARLINK-3702,PAYLOAD,2022-11-05 12:28:59,15.08829015,0.0001623,53.2178,166.6851,61.6248,298.4907,-0.00015508,-2.755e-05,0.0,0 STARLINK-3702,1 52100U 22029N   22309.52012815 -.00002755  00000-0 -15508-3 0  9996,2 52100  53.2178 166.6851 0001623  61.6248 298.4907 15.08829015 36454,6917.9140000000025,95.438,540.9019999999998,538.656,0.0
52100.0,STARLINK-3702,PAYLOAD,2022-11-05 17:15:09,15.08815276,0.000168,53.2177,165.7926,63.0132,297.1032,-0.00019121,-3.328e-05,0.0,0 STARLINK-3702,1 52100U 22029N   22309.71886064 -.00003328  00000-0 -19121-3 0  9994,2 52100  53.2177 165.7926 0001680  63.0132 297.1032 15.08815276 36489,6917.956,95.439,540.9830000000002,538.659,0.0
52100.0,STARLINK-3702,PAYLOAD,2022-11-06 09:09:00,15.08820956,0.0001485,53.218,162.8197,61.2832,298.8309,-1.4149e-05,-5.13e-06,0.0,0 STARLINK-3702,1 52100U 22029N   22310.38125574 -.00000513  00000-0 -14149-4 0  9990,2 52100  53.2180 162.8197 0001485  61.2832 298.8309 15.08820956 36588,6917.939,95.439,540.831,538.776,0.0
52100.0,STARLINK-3702,PAYLOAD,2022-11-06 20:16:42,15.08831955,0.0001636,53.218,160.7383,59.4404,300.675,8.206799999999999e-05,1.018e-05,0.0,0 STARLINK-3702,1 52100U 22029N   22310.84493065  .00001018  00000-0  82068-4 0  9998,2 52100  53.2180 160.7383 0001636  59.4404 300.6750 15.08831955 36655,6917.905,95.438,540.9019999999998,538.638,0.0
52100.0,STARLINK-3702,PAYLOAD,2022-11-07 20:07:29,15.08847658,0.0001591,53.2168,156.2772,70.1504,289.966,0.00051052,7.848e-05,0.0,0 STARLINK-3702,1 52100U 22029N   22311.83853083  .00007848  00000-0  51052-3 0  9993,2 52100  53.2168 156.2772 0001591  70.1504 289.9660 15.08847658 36807,6917.857,95.437,540.823,538.621,0.0
52100.0,STARLINK-3702,PAYLOAD,2022-11-08 07:15:10,15.08851094,0.0001657,53.2161,154.1955,57.6681,302.4471,0.00036124,5.468e-05,0.0,0 STARLINK-3702,1 52100U 22029N   22312.30220851  .00005468  00000-0  36124-3 0  9996,2 52100  53.2161 154.1955 0001657  57.6681 302.4471 15.08851094 36876,6917.846,95.437,540.8580000000002,538.565,0.0
52100.0,STARLINK-3702,PAYLOAD,2022-11-08 19:58:14,15.08864177,0.0001639,53.2161,151.8164,57.0025,303.1125,0.00036481,5.526e-05,0.0,0 STARLINK-3702,1 52100U 22029N   22312.83211795  .00005526  00000-0  36481-3 0  9992,2 52100  53.2161 151.8164 0001639  57.0025 303.1125 15.08864177 36957,6917.806,95.436,540.805,538.538,0.0
